$$SOE
2460154.500000000, A.D. 2023-Jul-29 00:00:00.0000, 2.294524121070631E+07, -2.419341507280442E+08, -4.993406859907950E+07,
2460161.500000000, A.D. 2023-Aug-05 00:00:00.0000, 3.852137007548454E+07, -2.388989764982030E+08, -5.095089146054080E+07,
2460168.500000000, A.D. 2023-Aug-12 00:00:00.0000, 5.397380089295775E+07, -2.350972897435022E+08, -5.180422657853495E+07,
2460175.500000000, A.D. 2023-Aug-19 00:00:00.0000, 6.925175984973438E+07, -2.305359899809421E+08, -5.249017093238419E+07,
2460182.500000000, A.D. 2023-Aug-26 00:00:00.0000, 8.430496774611579E+07, -2.252266895413170E+08, -5.300579904293728E+07,
2460189.500000000, A.D. 2023-Sep-02 00:00:00.0000, 9.908424157534158E+07, -2.191856365406600E+08, -5.334921014205396E+07,
2460196.500000000, A.D. 2023-Sep-09 00:00:00.0000, 1.135420803286934E+08, -2.124335417127435E+08, -5.351955480452265E+07,
2460203.500000000, A.D. 2023-Sep-16 00:00:00.0000, 1.276332162786656E+08, -2.049953140947326E+08, -5.351704007010712E+07,
2460210.500000000, A.D. 2023-Sep-23 00:00:00.0000, 1.413151148417091E+08, -1.968997144131711E+08, -5.334291307187788E+07,
2460217.500000000, A.D. 2023-Sep-30 00:00:00.0000, 1.545484080176510E+08, -1.881789376905209E+08, -5.299942402089501E+07,
2460224.500000000, A.D. 2023-Oct-07 00:00:00.0000, 1.672972478656763E+08, -1.788681410141940E+08, -5.248977024191880E+07,
2460231.500000000, A.D. 2023-Oct-14 00:00:00.0000, 1.795295738629710E+08, -1.690049368149366E+08, -5.181802422778387E+07,
2460238.500000000, A.D. 2023-Oct-21 00:00:00.0000, 1.912172943496312E+08, -1.586288676156206E+08, -5.098904901652826E+07,
2460245.500000000, A.D. 2023-Oct-28 00:00:00.0000, 2.023363816167690E+08, -1.477808770251833E+08, -5.000840402652450E+07,
2460252.500000000, A.D. 2023-Nov-04 00:00:00.0000, 2.128668839277735E+08, -1.365027933280065E+08, -4.888224483077064E+07,
2460259.500000000, A.D. 2023-Nov-11 00:00:00.0000, 2.227928621000380E+08, -1.248368396850618E+08, -4.761722034438881E+07,
2460266.500000000, A.D. 2023-Nov-18 00:00:00.0000, 2.321022604573987E+08, -1.128251818074937E+08, -4.622037056623628E+07,
2460273.500000000, A.D. 2023-Nov-25 00:00:00.0000, 2.407867231535760E+08, -1.005095210486180E+08, -4.469902757769303E+07,
2460280.500000000, A.D. 2023-Dec-02 00:00:00.0000, 2.488413673937721E+08, -8.793073808306603E+07, -4.306072200693655E+07,
2460287.500000000, A.D. 2023-Dec-09 00:00:00.0000, 2.562645250295979E+08, -7.512858977629285E+07, -4.131309665066708E+07,
2460294.500000000, A.D. 2023-Dec-16 00:00:00.0000, 2.630574635665142E+08, -6.214145948293736E+07, -3.946382844068322E+07,
2460301.500000000, A.D. 2023-Dec-23 00:00:00.0000, 2.692240966588219E+08, -4.900615844008905E+07, -3.752055941606484E+07,
2460308.500000000, A.D. 2023-Dec-30 00:00:00.0000, 2.747706912213085E+08, -3.575777411309202E+07, -3.549083676378708E+07,
2460315.500000000, A.D. 2024-Jan-06 00:00:00.0000, 2.797055764474748E+08, -2.242956374698526E+07, -3.338206188159582E+07,
2460322.500000000, A.D. 2024-Jan-13 00:00:00.0000, 2.840388635290184E+08, -9.052890169990053E+06, -3.120144854712400E+07,
2460329.500000000, A.D. 2024-Jan-20 00:00:00.0000, 2.877821815700886E+08, 4.342808318497656E+06, -2.895598949705938E+07,
2460336.500000000, A.D. 2024-Jan-27 00:00:00.0000, 2.909484307125119E+08, 1.773001975030340E+07, -2.665243048625197E+07,
2460343.500000000, A.D. 2024-Feb-03 00:00:00.0000, 2.935515540073035E+08, 3.108313598807149E+07, -2.429725109468449E+07,
2460350.500000000, A.D. 2024-Feb-10 00:00:00.0000, 2.956063293576463E+08, 4.437841027402839E+07, -2.189665152756526E+07,
2460357.500000000, A.D. 2024-Feb-17 00:00:00.0000, 2.971281819739714E+08, 5.759389907090242E+07, -1.945654461955044E+07,
2460364.500000000, A.D. 2024-Feb-24 00:00:00.0000, 2.981330170938457E+08, 7.070939198346841E+07, -1.698255227419859E+07,
2460371.500000000, A.D. 2024-Mar-02 00:00:00.0000, 2.986370722729402E+08, 8.370633302100334E+07, -1.448000562195661E+07,
2460378.500000000, A.D. 2024-Mar-09 00:00:00.0000, 2.986567883497133E+08, 9.656773595471425E+07, -1.195394825342202E+07,
2460385.500000000, A.D. 2024-Mar-16 00:00:00.0000, 2.982086982331356E+08, 1.092780963289884E+08, -9.409141954249006E+06,
2460392.500000000, A.D. 2024-Mar-23 00:00:00.0000, 2.973093320324117E+08, 1.218233031797236E+08, -6.850074316726238E+06,
2460399.500000000, A.D. 2024-Mar-30 00:00:00.0000, 2.959751348594002E+08, 1.341905520141165E+08, -4.280967567203097E+06,
2460406.500000000, A.D. 2024-Apr-06 00:00:00.0000, 2.942223961492307E+08, 1.463682569336515E+08, -1.705788516171679E+06,
2460413.500000000, A.D. 2024-Apr-13 00:00:00.0000, 2.920671926681018E+08, 1.583459636877699E+08, 8.717404429899380E+05,
2460420.500000000, A.D. 2024-Apr-20 00:00:00.0000, 2.895253429290685E+08, 1.701142670465640E+08, 3.448129870332010E+06,
2460427.500000000, A.D. 2024-Apr-27 00:00:00.0000, 2.866123702604650E+08, 1.816647324418653E+08, 6.020111673173830E+06,
2460434.500000000, A.D. 2024-May-04 00:00:00.0000, 2.833434734723222E+08, 1.929898215122786E+08, 8.584627478063956E+06,
2460441.500000000, A.D. 2024-May-11 00:00:00.0000, 2.797335043118797E+08, 2.040828216484323E+08, 1.113881709909451E+07,
2460448.500000000, A.D. 2024-May-18 00:00:00.0000, 2.757969508368276E+08, 2.149377796476501E+08, 1.368000721255718E+07,
2460455.500000000, A.D. 2024-May-25 00:00:00.0000, 2.715479258713293E+08, 2.255494394767270E+08, 1.620570032341826E+07,
2460462.500000000, A.D. 2024-Jun-01 00:00:00.0000, 2.670001598407667E+08, 2.359131840321930E+08, 1.871356407979277E+07,
2460469.500000000, A.D. 2024-Jun-08 00:00:00.0000, 2.621669975632549E+08, 2.460249807759827E+08, 2.120142095987765E+07,
2460476.500000000, A.D. 2024-Jun-15 00:00:00.0000, 2.570613988168644E+08, 2.558813316518345E+08, 2.366723837330331E+07,
2460483.500000000, A.D. 2024-Jun-22 00:00:00.0000, 2.516959411666642E+08, 2.654792282820568E+08, 2.610911938554944E+07,
2460490.500000000, A.D. 2024-Jun-29 00:00:00.0000, 2.460828224766821E+08, 2.748161104324735E+08, 2.852529412134565E+07,
2460497.500000000, A.D. 2024-Jul-06 00:00:00.0000, 2.402338653649039E+08, 2.838898250811142E+08, 3.091411140536557E+07,
2460504.500000000, A.D. 2024-Jul-13 00:00:00.0000, 2.341605252179670E+08, 2.926985887100914E+08, 3.327403068713419E+07,
2460511.500000000, A.D. 2024-Jul-20 00:00:00.0000, 2.278738994870272E+08, 3.012409537632637E+08, 3.560361451562867E+07,
2460518.500000000, A.D. 2024-Jul-27 00:00:00.0000, 2.213847373585619E+08, 3.095157781118330E+08, 3.790152153172797E+07,
2460525.500000000, A.D. 2024-Aug-03 00:00:00.0000, 2.147034498617881E+08, 3.175221969615332E+08, 4.016649990669233E+07,
2460532.500000000, A.D. 2024-Aug-10 00:00:00.0000, 2.078401204000238E+08, 3.252595970130134E+08, 4.239738119301990E+07,
2460539.500000000, A.D. 2024-Aug-17 00:00:00.0000, 2.008045156030001E+08, 3.327275927218037E+08, 4.459307456576239E+07,
2460546.500000000, A.D. 2024-Aug-24 00:00:00.0000, 1.936060964019484E+08, 3.399260044697074E+08, 4.675256142985313E+07,
2460553.500000000, A.D. 2024-Aug-31 00:00:00.0000, 1.862540293380723E+08, 3.468548384302226E+08, 4.887489035751034E+07,
2460560.500000000, A.D. 2024-Sep-07 00:00:00.0000, 1.787571983833693E+08, 3.535142681090547E+08, 5.095917231242682E+07,
2460567.500000000, A.D. 2024-Sep-14 00:00:00.0000, 1.711242172895773E+08, 3.599046184200664E+08, 5.300457621455179E+07,
2460574.500000000, A.D. 2024-Sep-21 00:00:00.0000, 1.633634403796468E+08, 3.660263525791646E+08, 5.501032504507565E+07,
2460581.500000000, A.D. 2024-Sep-28 00:00:00.0000, 1.554829712438037E+08, 3.718800584679967E+08, 5.697569225316885E+07,
2460588.500000000, A.D. 2024-Oct-05 00:00:00.0000, 1.474906729728965E+08, 3.774664343652701E+08, 5.889999811120935E+07,
2460595.500000000, A.D. 2024-Oct-12 00:00:00.0000, 1.393941795436713E+08, 3.827862769266186E+08, 6.078260627822798E+07,
2460602.500000000, A.D. 2024-Oct-19 00:00:00.0000, 1.312009065836728E+08, 3.878404710473113E+08, 6.262292069323662E+07,
2460609.500000000, A.D. 2024-Oct-26 00:00:00.0000, 1.229180614670537E+08, 3.926299807208241E+08, 6.442038272049086E+07,
2460616.500000000, A.D. 2024-Nov-02 00:00:00.0000, 1.145526529880671E+08, 3.971558406672219E+08, 6.617446849667811E+07,
2460623.500000000, A.D. 2024-Nov-09 00:00:00.0000, 1.061115007028513E+08, 4.014191486808780E+08, 6.788468645949170E+07,
2460630.500000000, A.D. 2024-Nov-16 00:00:00.0000, 9.760124396303044E+07, 4.054210586324219E+08, 6.955057504270172E+07,
2460637.500000000, A.D. 2024-Nov-23 00:00:00.0000, 8.902835068855973E+07, 4.091627740149034E+08, 7.117170051756799E+07,
2460644.500000000, A.D. 2024-Nov-30 00:00:00.0000, 8.039912609076482E+07, 4.126455419363335E+08, 7.274765494694012E+07,
2460651.500000000, A.D. 2024-Dec-07 00:00:00.0000, 7.171972176935546E+07, 4.158706479291273E+08, 7.427805423768342E+07,
2460658.500000000, A.D. 2024-Dec-14 00:00:00.0000, 6.299614450141702E+07, 4.188394127550192E+08, 7.576253644503394E+07,
2460665.500000000, A.D. 2024-Dec-21 00:00:00.0000, 5.423426241158005E+07, 4.215531899200537E+08, 7.720076043031645E+07,
2460672.500000000, A.D. 2024-Dec-28 00:00:00.0000, 4.543981050018363E+07, 4.240133608912840E+08, 7.859240443969658E+07,
2460679.500000000, A.D. 2025-Jan-04 00:00:00.0000, 3.661839813301500E+07, 4.262213303608660E+08, 7.993716455373105E+07,
2460686.500000000, A.D. 2025-Jan-11 00:00:00.0000, 2.777551668254028E+07, 4.281785231886697E+08, 8.123475330436277E+07,
2460693.500000000, A.D. 2025-Jan-18 00:00:00.0000, 1.891654641468331E+07, 4.298863820752965E+08, 8.248489846206206E+07,
2460700.500000000, A.D. 2025-Jan-25 00:00:00.0000, 1.004676287539414E+07, 4.313463654637796E+08, 8.368734192600280E+07,
2460707.500000000, A.D. 2025-Feb-01 00:00:00.0000, 1.171342977004001E+06, 4.325599456144361E+08, 8.484183869154143E+07,
2460714.500000000, A.D. 2025-Feb-08 00:00:00.0000, -7.704629147952938E+06, 4.335286068492122E+08, 8.594815588569376E+07,
2460721.500000000, A.D. 2025-Feb-15 00:00:00.0000, -1.657615648850839E+07, 4.342538439254553E+08, 8.700607186167422E+07,
$$EOE